ORBCOMM-X               
1 21576U 91050C   24332.61398213  .00001207  00000+0  37370-3 0  9995
2 21576  98.3719  37.0856 0004785  80.7239 279.4492 14.42939861753045
ORBCOMM FM01            
1 23545U 95017A   24333.07847270  .00018026  00000+0  20853-2 0  9997
2 23545  69.9655 214.0277 0007296 270.1844  89.8472 14.85546060582949
ORBCOMM FM02            
1 23546U 95017B   24332.47272497  .00018344  00000+0  21295-2 0  9998
2 23546  69.9675 235.2137 0009407 268.3447  91.6627 14.85385123582142
ORBCOMM FM08            
1 25112U 97084A   24333.09261828  .00005433  00000+0  16008-2 0  9991
2 25112  45.0135 252.2842 0007299 319.3972  40.6334 14.44409736412455
ORBCOMM FM10            
1 25113U 97084B   24332.49323839  .00005205  00000+0  15408-2 0  9996
2 25113  45.0148 257.2122 0004916 289.0349  70.9969 14.44253569587342
ORBCOMM FM11            
1 25114U 97084C   24332.87978929  .00004747  00000+0  14152-2 0  9990
2 25114  45.0132 255.6494 0005781 290.4047  69.6182 14.44035378412369
ORBCOMM FM12            
1 25115U 97084D   24332.91330944  .00004707  00000+0  14036-2 0  9992
2 25115  45.0139 255.2484 0004770 291.7395  68.2947 14.44040742412162
ORBCOMM FM09            
1 25116U 97084E   24332.93098355  .00004629  00000+0  13831-2 0  9997
2 25116  45.0144 255.9266 0005721 274.7283  85.2914 14.43968360412378
